COSMOS 2413 (712)       
1 28509U 04053B   15355.65999161  .00000113  00000-0  00000-0 0  9996
2 28509  63.1317 196.4557 0005611 159.4286 173.8015  2.13101737 85487
COSMOS 2419 (714)       
1 28915U 05050A   15356.21662700 -.00000047  00000-0  00000+0 0  9990
2 28915  65.2442  84.1758 0014261 351.3001  47.6419  2.13113089 77766
COSMOS 2425 (716)       
1 29670U 06062A   15355.44348854 -.00000044  00000-0  10000-3 0  9990
2 29670  65.7083 323.1610 0022626 338.8648 249.5130  2.13105030 69946
COSMOS 2426 (717)       
1 29671U 06062B   15356.11662417 -.00000050  00000-0  10000-3 0  9997
2 29671  65.7252 323.2160 0016037 174.4288  72.5319  2.13103135 69968
COSMOS 2424 (715)       
1 29672U 06062C   15356.16346238 -.00000051  00000-0  10000-3 0  9994
2 29672  65.7098 323.1463 0015452 173.4812 286.2541  2.13102200 69967
COSMOS 2433 (720)       
1 32275U 07052A   15355.71110763 -.00000046  00000-0  10000-3 0  9993
2 32275  65.2593  83.9604 0002813 234.4753  30.9464  2.13105057 63462
COSMOS 2432 (719)       
1 32276U 07052B   15355.77807808 -.00000046  00000-0  10000-3 0  9993
2 32276  65.2713  84.0210 0010509 335.7963 295.2508  2.13104285 63468
COSMOS 2434 (721)       
1 32393U 07065A   15356.08491321 -.00000051  00000-0  00000+0 0  9992
2 32393  65.3279 322.5465 0001312 135.2501 310.4722  2.13102861 62185
COSMOS 2436 (723)       
1 32395U 07065C   15355.65590580 -.00000047  00000-0  10000-3 0  9993
2 32395  65.3410 322.6009 0017862 345.0803 223.5062  2.13102920 62101
COSMOS 2443 (725)       
1 33379U 08046B   15356.12734134 -.00000047  00000-0  10000-3 0  9994
2 33379  65.1877  83.3804 0019290 184.5291 307.5045  2.13101551 56349
COSMOS 2456 (730)       
1 36111U 09070A   15356.39701308  .00000108  00000-0  00000+0 0  9997
2 36111  64.1863 202.1570 0003712 344.4028 149.4117  2.13103076 46850
COSMOS 2457 (733)       
1 36112U 09070B   15356.28221784  .00000109  00000-0  00000+0 0  9992
2 36112  64.1682 202.0925 0007232 148.3138  28.5401  2.13101733 46858
COSMOS 2458 (734)       
1 36113U 09070C   15356.40161097  .00000108  00000-0  10000-3 0  9991
2 36113  64.1739 202.0924 0002810  55.5466 260.1153  2.13102028 46857
COSMOS 2459 (731)       
1 36400U 10007A   15355.58415317 -.00000046  00000-0  10000-3 0  9999
2 36400  65.1665  83.1380 0027087 353.2424  41.7371  2.13102376 45191
COSMOS 2461 (735)       
1 36401U 10007B   15356.17541281 -.00000048  00000-0  10000-3 0  9998
2 36401  65.1598  83.1009 0005896  85.7928 313.3314  2.13102294 45201
COSMOS 2460 (732)       
1 36402U 10007C   15356.10075427 -.00000047  00000-0  10000-3 0  9995
2 36402  65.1500  83.0829 0001373 174.2122 209.7796  2.13102014 45202
COSMOS 2466 (738)       
1 37137U 10041A   15356.16930844 -.00000053  00000-0  10000-3 0  9995
2 37137  64.9117 322.7371 0019046 160.3955 213.6994  2.13102399 41284
COSMOS 2465 (737)       
1 37138U 10041B   15356.13148197 -.00000052  00000-0  00000+0 0  9999
2 37138  64.9284 322.8083 0033857 172.5738 355.0013  2.13102787 41274
COSMOS 2464 (736)       
1 37139U 10041C   15356.45265258 -.00000055  00000-0  00000+0 0  9996
2 37139  64.9307 322.7891 0021820   6.8150 181.7278  2.13102859 41289
COSMOS 2471 (701K)      
1 37372U 11009A   15356.25204250 -.00000048  00000-0  00000+0 0  9995
2 37372  65.1474  83.0276 0008398 228.5847  43.4535  2.13103006 37472
COSMOS 2474 (742)       
1 37829U 11055A   15356.40863539  .00000109  00000-0  00000+0 0  9998
2 37829  64.5100 202.4959 0005938 250.6133 114.3128  2.13101996 32853
COSMOS 2476 (744)       
1 37867U 11064A   15355.66493826  .00000109  00000-0  00000+0 0  9995
2 37867  64.4903 202.6066 0014726 246.5305 313.6096  2.13102116 32185
COSMOS 2477 (745)       
1 37868U 11064B   15355.66276523  .00000109  00000-0  00000+0 0  9999
2 37868  64.4988 202.6452 0012799 247.7485 130.1396  2.13102020 32143
COSMOS 2475 (743)       
1 37869U 11064C   15355.66296922  .00000109  00000-0  00000+0 0  9995
2 37869  64.5065 202.6313 0018569 278.9442  55.1420  2.13102305 32147
COSMOS 2478 (746)       
1 37938U 11071A   15355.76320525 -.00000047  00000-0  00000-0 0  9991
2 37938  65.1737  83.2599 0014164 237.9826 141.1582  2.13088376 31767
COSMOS 2485 (747)       
1 39155U 13019A   15355.88182743  .00000110  00000-0  00000+0 0  9998
2 39155  64.6597 202.5106 0015033 240.1392 171.5945  2.13102203 20661
COSMOS 2492 (754)       
1 39620U 14012A   15356.11736847 -.00000048  00000-0  10000-3 0  9992
2 39620  65.0378  83.0960 0014465 330.3946 294.6593  2.13103395 13611
COSMOS 2500 (755)       
1 40001U 14032A   15355.57332897 -.00000046  00000-0  00000-0 0  9999
2 40001  64.9786  83.1520 0007350 200.2006 231.5576  2.13103011 11824
COSMOS 2501 (702K)      
1 40315U 14075A   15355.94394941 -.00000050  00000-0  00000+0 0  9997
2 40315  64.6990 324.3192 0018805 240.3453 277.9065  2.13101566  8230
